UMBRA-07                
1 58297U 23174AT  26193.69547051  .00006033  00000+0  37916-3 0  9996
2 58297  97.3790 248.4970 0002494  22.7929 337.3411 15.09593405147265
UMBRA-09                
1 60541U 24149CB  26193.76821811  .00009934  00000+0  48059-3 0  9994
2 60541  97.6981 281.4236 0001811 204.8355 155.2791 15.18802391104601
UMBRA-10                
1 60547U 24149CH  26193.76776418  .00011492  00000+0  55518-3 0  9992
2 60547  97.6986 281.4536 0001520 166.8110 193.3163 15.18808032104613
UMBRA-11                
1 66748U 25276CL  26193.74408226  .00016144  00000+0  59807-3 0  9994
2 66748  97.4198 268.2311 0002357 192.4725 167.6456 15.27720039 34391
UMBRA-12                
1 67371U 26004J   26193.56898431  .00002170  00000+0  23338-3 0  9992
2 67371  97.8020 191.9903 0007581  59.8368 300.3600 14.89520811 27082
