{"fetched_at":"2026-07-13T07:48:50.164Z","source":"https://celestrak.org/NORAD/elements/gp.php?NAME=UMBRA&FORMAT=JSON","constellation":"umbra","records":[{"OBJECT_NAME":"UMBRA-07","OBJECT_ID":"2023-174AT","EPOCH":"2026-07-12T16:41:28.652064","CLASSIFICATION_TYPE":"U","MEAN_MOTION":15.09593405,"ECCENTRICITY":0.0002494,"INCLINATION":97.379,"RA_OF_ASC_NODE":248.497,"ARG_OF_PERICENTER":22.7929,"MEAN_ANOMALY":337.3411,"EPHEMERIS_TYPE":0,"NORAD_CAT_ID":58297,"ELEMENT_SET_NO":999,"REV_AT_EPOCH":14726,"BSTAR":0.00037916,"MEAN_MOTION_DOT":0.00006033,"MEAN_MOTION_DDOT":0},{"OBJECT_NAME":"UMBRA-09","OBJECT_ID":"2024-149CB","EPOCH":"2026-07-12T18:26:14.044704","CLASSIFICATION_TYPE":"U","MEAN_MOTION":15.18802391,"ECCENTRICITY":0.0001811,"INCLINATION":97.6981,"RA_OF_ASC_NODE":281.4236,"ARG_OF_PERICENTER":204.8355,"MEAN_ANOMALY":155.2791,"EPHEMERIS_TYPE":0,"NORAD_CAT_ID":60541,"ELEMENT_SET_NO":999,"REV_AT_EPOCH":10460,"BSTAR":0.00048059,"MEAN_MOTION_DOT":0.00009934,"MEAN_MOTION_DDOT":0},{"OBJECT_NAME":"UMBRA-10","OBJECT_ID":"2024-149CH","EPOCH":"2026-07-12T18:25:34.825152","CLASSIFICATION_TYPE":"U","MEAN_MOTION":15.18808032,"ECCENTRICITY":0.000152,"INCLINATION":97.6986,"RA_OF_ASC_NODE":281.4536,"ARG_OF_PERICENTER":166.811,"MEAN_ANOMALY":193.3163,"EPHEMERIS_TYPE":0,"NORAD_CAT_ID":60547,"ELEMENT_SET_NO":999,"REV_AT_EPOCH":10461,"BSTAR":0.00055518,"MEAN_MOTION_DOT":0.00011492,"MEAN_MOTION_DDOT":0},{"OBJECT_NAME":"UMBRA-11","OBJECT_ID":"2025-276CL","EPOCH":"2026-07-12T17:51:28.707264","CLASSIFICATION_TYPE":"U","MEAN_MOTION":15.27720039,"ECCENTRICITY":0.0002357,"INCLINATION":97.4198,"RA_OF_ASC_NODE":268.2311,"ARG_OF_PERICENTER":192.4725,"MEAN_ANOMALY":167.6456,"EPHEMERIS_TYPE":0,"NORAD_CAT_ID":66748,"ELEMENT_SET_NO":999,"REV_AT_EPOCH":3439,"BSTAR":0.00059807,"MEAN_MOTION_DOT":0.00016144,"MEAN_MOTION_DDOT":0},{"OBJECT_NAME":"UMBRA-12","OBJECT_ID":"2026-004J","EPOCH":"2026-07-12T13:39:20.244384","CLASSIFICATION_TYPE":"U","MEAN_MOTION":14.89520811,"ECCENTRICITY":0.0007581,"INCLINATION":97.802,"RA_OF_ASC_NODE":191.9903,"ARG_OF_PERICENTER":59.8368,"MEAN_ANOMALY":300.36,"EPHEMERIS_TYPE":0,"NORAD_CAT_ID":67371,"ELEMENT_SET_NO":999,"REV_AT_EPOCH":2708,"BSTAR":0.00023338,"MEAN_MOTION_DOT":0.0000217,"MEAN_MOTION_DDOT":0}]}
